{"epoch":1784710044,"count":18256,"objects":[{"id":"68940","name":"KUIPER-00438","type":"PAYLOAD","l1":"1 68940U 26098X   26202.58335648  .00032818  00000-0  24846-2 0  9994","l2":"2 68940  51.8925 264.6640 0003883 346.9885 328.3073 15.02005882  5475"},{"id":"68941","name":"KUIPER-00439","type":"PAYLOAD","l1":"1 68941U 26098Y   26202.58335648  .00026224  00000-0  19180-2 0  9994","l2":"2 68941  51.8912 264.6898 0005121 303.6841  53.6138 15.03423601  5212"},{"id":"68942","name":"KUIPER-00440","type":"PAYLOAD","l1":"1 68942U 26098Z   26202.56178427  .00015110  00000-0  49968-3 0  9993","l2":"2 68942  51.8787 263.1298 0003250 323.8472  36.2292 15.31543384 12618"},{"id":"68943","name":"KUIPER-00442","type":"PAYLOAD","l1":"1 68943U 26098AA  26202.58335648  .00049223  00000-0  17545-2 0  9993","l2":"2 68943  51.8807 262.5102 0002683 281.1377  81.8516 15.28426040  5610"},{"id":"68944","name":"KUIPER-00446","type":"PAYLOAD","l1":"1 68944U 26098AB  26202.58335648 -.02068894  00000-0 -12098+0 0  9998","l2":"2 68944  51.8881 263.2350 0002520 258.9948  67.6118 15.15239136  5166"},{"id":"68945","name":"KUIPER-00451","type":"PAYLOAD","l1":"1 68945U 26098AC  26202.58335648  .00029010  00000-0  41521-2 0  9998","l2":"2 68945  51.8982 270.9280 0000784  31.7126  12.3738 14.76369472  5912"},{"id":"68946","name":"KUIPER-00452","type":"PAYLOAD","l1":"1 68946U 26098AD  26202.58335648 -.01430365  00000-0 -66017-1 0  9997","l2":"2 68946  51.8803 261.8632 0002508 289.6157  48.1235 15.22651309  4888"},{"id":"68947","name":"KUIPER-00453","type":"PAYLOAD","l1":"1 68947U 26098AE  26202.58335648 -.01075114  00000-0 -38059-1 0  9990","l2":"2 68947  51.8773 261.0693 0003939 352.2360  11.6263 15.31428505  5625"},{"id":"68948","name":"KUIPER-00454","type":"PAYLOAD","l1":"1 68948U 26098AF  26202.54604890  .00001174  00000-0  19792-3 0  9992","l2":"2 68948  51.9003 272.4371 0003741 157.9074 202.2048 14.76439821 12487"},{"id":"68949","name":"KUIPER-00455","type":"PAYLOAD","l1":"1 68949U 26098AG  26202.58335648  .00008449  00000-0  11367-2 0  9990","l2":"2 68949  51.8990 271.0668 0002484 308.4581 204.4681 14.79903171  5807"},{"id":"68950","name":"KUIPER-00458","type":"PAYLOAD","l1":"1 68950U 26098AH  26202.58335648 -.01808705  00000-0 -63374-1 0  9992","l2":"2 68950  51.8788 261.3713 0002603 335.7160 223.3078 15.32379907  5833"},{"id":"69267","name":"KUIPER-00282","type":"PAYLOAD","l1":"1 69267U 26118A   26202.58335648  .00029386  00000-0  21881-2 0  9992","l2":"2 69267  51.8851 249.7198 0010791 332.3838  35.5489 15.02652660  5729"},{"id":"69268","name":"KUIPER-00383","type":"PAYLOAD","l1":"1 69268U 26118B   26202.58335648 -.00238250  00000-0 -12435-1 0  9991","l2":"2 69268  51.8763 248.5941 0010252 319.8749 292.1044 15.16506568  2970"},{"id":"69269","name":"KUIPER-00527","type":"PAYLOAD","l1":"1 69269U 26118C   26202.58335648 -.01098408  00000-0 -65499-1 0  9990","l2":"2 69269  51.8817 248.5778 0008724 322.5550 255.4109 15.13464672  2926"},{"id":"69270","name":"KUIPER-00562","type":"PAYLOAD","l1":"1 69270U 26118D   26202.42148327  .00014700  00000-0  39441-3 0  9991","l2":"2 69270  51.8715 247.3746 0000766  33.2564 326.8471 15.38180764  9258"},{"id":"69271","name":"KUIPER-00570","type":"PAYLOAD","l1":"1 69271U 26118E   26202.58335648  .00029710  00000-0  30353-2 0  9992","l2":"2 69271  51.8940 251.4764 0006062 337.7299 188.1953 14.90335169  4603"}]}