{"fetched_at":"2026-07-22T07:09:20.374Z","source":"https://celestrak.org/NORAD/elements/gp.php?GROUP=kuiper&FORMAT=JSON","constellation":"kuiper","records":[{"OBJECT_NAME":"KUIPER-00438","OBJECT_ID":"2026-098X","EPOCH":"2026-07-21T14:00:01.999872","CLASSIFICATION_TYPE":"U","MEAN_MOTION":15.02005882,"ECCENTRICITY":0.00038834,"INCLINATION":51.8925,"RA_OF_ASC_NODE":264.664,"ARG_OF_PERICENTER":346.9885,"MEAN_ANOMALY":328.3073,"EPHEMERIS_TYPE":0,"NORAD_CAT_ID":68940,"ELEMENT_SET_NO":999,"REV_AT_EPOCH":547,"BSTAR":0.0024845655,"MEAN_MOTION_DOT":0.00032818,"MEAN_MOTION_DDOT":0},{"OBJECT_NAME":"KUIPER-00439","OBJECT_ID":"2026-098Y","EPOCH":"2026-07-21T14:00:01.999872","CLASSIFICATION_TYPE":"U","MEAN_MOTION":15.03423601,"ECCENTRICITY":0.00051206,"INCLINATION":51.8912,"RA_OF_ASC_NODE":264.6898,"ARG_OF_PERICENTER":303.6841,"MEAN_ANOMALY":53.6138,"EPHEMERIS_TYPE":0,"NORAD_CAT_ID":68941,"ELEMENT_SET_NO":999,"REV_AT_EPOCH":521,"BSTAR":0.0019179617,"MEAN_MOTION_DOT":0.00026224,"MEAN_MOTION_DDOT":0},{"OBJECT_NAME":"KUIPER-00440","OBJECT_ID":"2026-098Z","EPOCH":"2026-07-21T13:28:58.160928","CLASSIFICATION_TYPE":"U","MEAN_MOTION":15.31543384,"ECCENTRICITY":0.00032497,"INCLINATION":51.8787,"RA_OF_ASC_NODE":263.1298,"ARG_OF_PERICENTER":323.8472,"MEAN_ANOMALY":36.2292,"EPHEMERIS_TYPE":0,"NORAD_CAT_ID":68942,"ELEMENT_SET_NO":999,"REV_AT_EPOCH":1261,"BSTAR":0.00049967585,"MEAN_MOTION_DOT":0.0001511,"MEAN_MOTION_DDOT":0},{"OBJECT_NAME":"KUIPER-00442","OBJECT_ID":"2026-098AA","EPOCH":"2026-07-21T14:00:01.999872","CLASSIFICATION_TYPE":"U","MEAN_MOTION":15.2842604,"ECCENTRICITY":0.0002683,"INCLINATION":51.8807,"RA_OF_ASC_NODE":262.5102,"ARG_OF_PERICENTER":281.1377,"MEAN_ANOMALY":81.8516,"EPHEMERIS_TYPE":0,"NORAD_CAT_ID":68943,"ELEMENT_SET_NO":999,"REV_AT_EPOCH":561,"BSTAR":0.0017544831,"MEAN_MOTION_DOT":0.00049223,"MEAN_MOTION_DDOT":0},{"OBJECT_NAME":"KUIPER-00446","OBJECT_ID":"2026-098AB","EPOCH":"2026-07-21T14:00:01.999872","CLASSIFICATION_TYPE":"U","MEAN_MOTION":15.15239136,"ECCENTRICITY":0.00025199,"INCLINATION":51.8881,"RA_OF_ASC_NODE":263.235,"ARG_OF_PERICENTER":258.9948,"MEAN_ANOMALY":67.6118,"EPHEMERIS_TYPE":0,"NORAD_CAT_ID":68944,"ELEMENT_SET_NO":999,"REV_AT_EPOCH":516,"BSTAR":-0.12097978,"MEAN_MOTION_DOT":-0.02068894,"MEAN_MOTION_DDOT":0},{"OBJECT_NAME":"KUIPER-00451","OBJECT_ID":"2026-098AC","EPOCH":"2026-07-21T14:00:01.999872","CLASSIFICATION_TYPE":"U","MEAN_MOTION":14.76369472,"ECCENTRICITY":0.00007837,"INCLINATION":51.8982,"RA_OF_ASC_NODE":270.928,"ARG_OF_PERICENTER":31.7126,"MEAN_ANOMALY":12.3738,"EPHEMERIS_TYPE":0,"NORAD_CAT_ID":68945,"ELEMENT_SET_NO":999,"REV_AT_EPOCH":591,"BSTAR":0.0041520991,"MEAN_MOTION_DOT":0.0002901,"MEAN_MOTION_DDOT":0},{"OBJECT_NAME":"KUIPER-00452","OBJECT_ID":"2026-098AD","EPOCH":"2026-07-21T14:00:01.999872","CLASSIFICATION_TYPE":"U","MEAN_MOTION":15.22651309,"ECCENTRICITY":0.00025078,"INCLINATION":51.8803,"RA_OF_ASC_NODE":261.8632,"ARG_OF_PERICENTER":289.6157,"MEAN_ANOMALY":48.1235,"EPHEMERIS_TYPE":0,"NORAD_CAT_ID":68946,"ELEMENT_SET_NO":999,"REV_AT_EPOCH":488,"BSTAR":-0.066016951,"MEAN_MOTION_DOT":-0.01430365,"MEAN_MOTION_DDOT":0},{"OBJECT_NAME":"KUIPER-00453","OBJECT_ID":"2026-098AE","EPOCH":"2026-07-21T14:00:01.999872","CLASSIFICATION_TYPE":"U","MEAN_MOTION":15.31428505,"ECCENTRICITY":0.00039394,"INCLINATION":51.8773,"RA_OF_ASC_NODE":261.0693,"ARG_OF_PERICENTER":352.236,"MEAN_ANOMALY":11.6263,"EPHEMERIS_TYPE":0,"NORAD_CAT_ID":68947,"ELEMENT_SET_NO":999,"REV_AT_EPOCH":562,"BSTAR":-0.038058894,"MEAN_MOTION_DOT":-0.01075114,"MEAN_MOTION_DDOT":0},{"OBJECT_NAME":"KUIPER-00454","OBJECT_ID":"2026-098AF","EPOCH":"2026-07-21T13:06:18.624960","CLASSIFICATION_TYPE":"U","MEAN_MOTION":14.76439821,"ECCENTRICITY":0.00037409,"INCLINATION":51.9003,"RA_OF_ASC_NODE":272.4371,"ARG_OF_PERICENTER":157.9074,"MEAN_ANOMALY":202.2048,"EPHEMERIS_TYPE":0,"NORAD_CAT_ID":68948,"ELEMENT_SET_NO":999,"REV_AT_EPOCH":1248,"BSTAR":0.00019791543,"MEAN_MOTION_DOT":0.00001174,"MEAN_MOTION_DDOT":0},{"OBJECT_NAME":"KUIPER-00455","OBJECT_ID":"2026-098AG","EPOCH":"2026-07-21T14:00:01.999872","CLASSIFICATION_TYPE":"U","MEAN_MOTION":14.79903171,"ECCENTRICITY":0.0002484,"INCLINATION":51.899,"RA_OF_ASC_NODE":271.0668,"ARG_OF_PERICENTER":308.4581,"MEAN_ANOMALY":204.4681,"EPHEMERIS_TYPE":0,"NORAD_CAT_ID":68949,"ELEMENT_SET_NO":999,"REV_AT_EPOCH":580,"BSTAR":0.0011366621,"MEAN_MOTION_DOT":0.00008449,"MEAN_MOTION_DDOT":0},{"OBJECT_NAME":"KUIPER-00458","OBJECT_ID":"2026-098AH","EPOCH":"2026-07-21T14:00:01.999872","CLASSIFICATION_TYPE":"U","MEAN_MOTION":15.32379907,"ECCENTRICITY":0.00026031,"INCLINATION":51.8788,"RA_OF_ASC_NODE":261.3713,"ARG_OF_PERICENTER":335.716,"MEAN_ANOMALY":223.3078,"EPHEMERIS_TYPE":0,"NORAD_CAT_ID":68950,"ELEMENT_SET_NO":999,"REV_AT_EPOCH":583,"BSTAR":-0.063373591,"MEAN_MOTION_DOT":-0.01808705,"MEAN_MOTION_DDOT":0},{"OBJECT_NAME":"KUIPER-00282","OBJECT_ID":"2026-118A","EPOCH":"2026-07-21T14:00:01.999872","CLASSIFICATION_TYPE":"U","MEAN_MOTION":15.0265266,"ECCENTRICITY":0.00107911,"INCLINATION":51.8851,"RA_OF_ASC_NODE":249.7198,"ARG_OF_PERICENTER":332.3838,"MEAN_ANOMALY":35.5489,"EPHEMERIS_TYPE":0,"NORAD_CAT_ID":69267,"ELEMENT_SET_NO":999,"REV_AT_EPOCH":572,"BSTAR":0.0021881141,"MEAN_MOTION_DOT":0.00029386,"MEAN_MOTION_DDOT":0},{"OBJECT_NAME":"KUIPER-00383","OBJECT_ID":"2026-118B","EPOCH":"2026-07-21T14:00:01.999872","CLASSIFICATION_TYPE":"U","MEAN_MOTION":15.16506568,"ECCENTRICITY":0.00102522,"INCLINATION":51.8763,"RA_OF_ASC_NODE":248.5941,"ARG_OF_PERICENTER":319.8749,"MEAN_ANOMALY":292.1044,"EPHEMERIS_TYPE":0,"NORAD_CAT_ID":69268,"ELEMENT_SET_NO":999,"REV_AT_EPOCH":297,"BSTAR":-0.012435027,"MEAN_MOTION_DOT":-0.0023825,"MEAN_MOTION_DDOT":0},{"OBJECT_NAME":"KUIPER-00527","OBJECT_ID":"2026-118C","EPOCH":"2026-07-21T14:00:01.999872","CLASSIFICATION_TYPE":"U","MEAN_MOTION":15.13464672,"ECCENTRICITY":0.00087243,"INCLINATION":51.8817,"RA_OF_ASC_NODE":248.5778,"ARG_OF_PERICENTER":322.555,"MEAN_ANOMALY":255.4109,"EPHEMERIS_TYPE":0,"NORAD_CAT_ID":69269,"ELEMENT_SET_NO":999,"REV_AT_EPOCH":292,"BSTAR":-0.065498774,"MEAN_MOTION_DOT":-0.01098408,"MEAN_MOTION_DDOT":0},{"OBJECT_NAME":"KUIPER-00562","OBJECT_ID":"2026-118D","EPOCH":"2026-07-21T10:06:56.154528","CLASSIFICATION_TYPE":"U","MEAN_MOTION":15.38180764,"ECCENTRICITY":0.0000766,"INCLINATION":51.8715,"RA_OF_ASC_NODE":247.3746,"ARG_OF_PERICENTER":33.2564,"MEAN_ANOMALY":326.8471,"EPHEMERIS_TYPE":0,"NORAD_CAT_ID":69270,"ELEMENT_SET_NO":999,"REV_AT_EPOCH":925,"BSTAR":0.00039441416,"MEAN_MOTION_DOT":0.000147,"MEAN_MOTION_DDOT":0},{"OBJECT_NAME":"KUIPER-00570","OBJECT_ID":"2026-118E","EPOCH":"2026-07-21T14:00:01.999872","CLASSIFICATION_TYPE":"U","MEAN_MOTION":14.90335169,"ECCENTRICITY":0.00060616,"INCLINATION":51.894,"RA_OF_ASC_NODE":251.4764,"ARG_OF_PERICENTER":337.7299,"MEAN_ANOMALY":188.1953,"EPHEMERIS_TYPE":0,"NORAD_CAT_ID":69271,"ELEMENT_SET_NO":999,"REV_AT_EPOCH":460,"BSTAR":0.0030353086,"MEAN_MOTION_DOT":0.0002971,"MEAN_MOTION_DDOT":0}]}
